NORAD_CAT_ID,OBJECT_NAME,OBJECT_TYPE,EPOCH,MEAN_MOTION,ECCENTRICITY,INCLINATION,RA_OF_ASC_NODE,ARG_OF_PERICENTER,MEAN_ANOMALY,BSTAR,MEAN_MOTION_DOT,MEAN_MOTION_DDOT,TLE_LINE0,TLE_LINE1,TLE_LINE2,SEMIMAJOR_AXIS,PERIOD,APOGEE,PERIGEE,DECAYED
55958.0,STARLINK-5928,PAYLOAD,2024-06-30 21:35:13,14.98338077,0.00031,70.0,19.6148,265.7215,94.3589,2.4436e-05,1.99e-06,0.0,0 STARLINK-5928,1 55958U 23037AW  24182.89946722  .00000199  00000-0  24436-4 0  9993,2 55958  70.0000  19.6148 0003100 265.7215  94.3589 14.98338077 72425,6950.168,96.106,574.187,569.878,0.0
55958.0,STARLINK-5928,PAYLOAD,2024-07-01 13:36:35,14.98324351,0.0003278,69.9999,17.9319,268.8188,91.2595,0.00011213,1.245e-05,0.0,0 STARLINK-5928,1 55958U 23037AW  24183.56707182  .00001245  00000-0  11213-3 0  9994,2 55958  69.9999  17.9319 0003278 268.8188  91.2595 14.98324351 72185,6950.21,96.107,574.354,569.797,0.0
55958.0,STARLINK-5928,PAYLOAD,2024-07-01 20:01:07,14.98328564,0.0003334,69.9999,17.2587,268.7688,91.3089,0.00010128,1.116e-05,0.0,0 STARLINK-5928,1 55958U 23037AW  24183.83410995  .00001116  00000-0  10128-3 0  9998,2 55958  69.9999  17.2587 0003334 268.7688  91.3089 14.98328564 72563,6950.197,96.107,574.38,569.745,0.0
55958.0,STARLINK-5928,PAYLOAD,2024-07-01 21:37:15,14.98329103,0.0003322,69.9999,17.0903,268.7631,91.3147,0.00010511,1.161e-05,0.0,0 STARLINK-5928,1 55958U 23037AW  24183.90086952  .00001161  00000-0  10511-3 0  9994,2 55958  69.9999  17.0903 0003322 268.7631  91.3147 14.98329103 72237,6950.196,96.107,574.37,569.752,0.0
55958.0,STARLINK-5928,PAYLOAD,2024-07-02 13:38:35,14.98328967,0.0003107,70.0004,15.4077,268.1072,91.9732,5.5574e-05,5.7e-06,0.0,0 STARLINK-5928,1 55958U 23037AW  24184.56847077  .00000570  00000-0  55574-4 0  9992,2 55958  70.0004  15.4077 0003107 268.1072  91.9732 14.98328967 72339,6950.196,96.107,574.221,569.902,0.0
55958.0,STARLINK-5928,PAYLOAD,2024-07-02 20:03:08,14.98333379,0.000311,70.0004,14.7345,266.2342,93.8461,-2.9745e-05,-4.48e-06,0.0,0 STARLINK-5928,1 55958U 23037AW  24184.83550945 -.00000448  00000-0 -29745-4 0  9994,2 55958  70.0004  14.7345 0003110 266.2342  93.8461 14.98333379 72717,6950.182,96.107,574.209,569.886,0.0
55958.0,STARLINK-5928,PAYLOAD,2024-07-02 21:39:16,14.98333765,0.0003105,70.0005,14.5661,266.2254,93.855,-2.4764e-05,-3.89e-06,0.0,0 STARLINK-5928,1 55958U 23037AW  24184.90226888 -.00000389  00000-0 -24764-4 0  9998,2 55958  70.0005  14.5661 0003105 266.2254  93.8550 14.98333765 72384,6950.181,96.107,574.204,569.888,0.0
55958.0,STARLINK-5928,PAYLOAD,2024-07-03 20:05:09,14.98329093,0.0003114,70.0005,12.2094,266.8643,93.216,-3.1371e-05,-4.67e-06,0.0,0 STARLINK-5928,1 55958U 23037AW  24185.83691087 -.00000467  00000-0 -31371-4 0  9997,2 55958  70.0005  12.2094 0003114 266.8643  93.2160 14.98329093 72860,6950.196,96.107,574.225,569.896,0.0
55958.0,STARLINK-5928,PAYLOAD,2024-07-03 21:41:17,14.98329805,0.0003111,70.0005,12.041,267.0709,93.0094,-2.2598e-05,-3.63e-06,0.0,0 STARLINK-5928,1 55958U 23037AW  24185.90367019 -.00000363  00000-0 -22598-4 0  9996,2 55958  70.0005  12.0410 0003111 267.0709  93.0094 14.98329805 72532,6950.193,96.107,574.221,569.896,0.0
55958.0,STARLINK-5928,PAYLOAD,2024-07-04 13:42:37,14.98329722,0.0003108,70.0005,10.3575,266.4446,93.6357,6.5019e-06,-1.5e-07,0.0,0 STARLINK-5928,1 55958U 23037AW  24186.57126896 -.00000015  00000-0  65019-5 0  9995,2 55958  70.0005  10.3575 0003108 266.4446  93.6357 14.98329722 72639,6950.194,96.107,574.219,569.899,0.0
55958.0,STARLINK-5928,PAYLOAD,2024-07-04 20:07:09,14.98330377,0.0003151,70.0004,9.6839,265.5737,94.5062,-6.9071e-06,-1.75e-06,0.0,0 STARLINK-5928,1 55958U 23037AW  24186.83830876 -.00000175  00000-0 -69071-5 0  9994,2 55958  70.0004   9.6839 0003151 265.5737  94.5062 14.98330377 73017,6950.192,96.107,574.247,569.867,0.0
55958.0,STARLINK-5928,PAYLOAD,2024-07-04 21:43:17,14.98331337,0.0003148,70.0004,9.5156,265.7006,94.3794,4.0071e-06,-4.5e-07,0.0,0 STARLINK-5928,1 55958U 23037AW  24186.90506783 -.00000045  00000-0  40071-5 0  9993,2 55958  70.0004   9.5156 0003148 265.7006  94.3794 14.98331337 72684,6950.189,96.107,574.242,569.866,0.0
55958.0,STARLINK-5928,PAYLOAD,2024-07-05 13:44:38,14.98330091,0.0003308,70.0,7.8313,266.5197,93.5583,1.4895e-05,8.5e-07,0.0,0 STARLINK-5928,1 55958U 23037AW  24187.57266753  .00000085  00000-0  14895-4 0  9994,2 55958  70.0000   7.8313 0003308 266.5197  93.5583 14.98330091 72788,6950.193,96.107,574.357,569.758,0.0
55958.0,STARLINK-5928,PAYLOAD,2024-07-05 20:09:10,14.98333121,0.0003285,70.0001,7.1585,267.5757,92.5026,4.9967e-05,5.03e-06,0.0,0 STARLINK-5928,1 55958U 23037AW  24187.83970448  .00000503  00000-0  49967-4 0  9999,2 55958  70.0001   7.1585 0003285 267.5757  92.5026 14.98333121 73161,6950.183,96.107,574.331,569.765,0.0
55958.0,STARLINK-5928,PAYLOAD,2024-07-05 21:45:18,14.98334363,0.0003281,70.0001,6.9902,267.6063,92.472,6.2656e-05,6.55e-06,0.0,0 STARLINK-5928,1 55958U 23037AW  24187.90646320  .00000655  00000-0  62656-4 0  9994,2 55958  70.0001   6.9902 0003281 267.6063  92.4720 14.98334363 72830,6950.179,96.107,574.325,569.764,0.0
55958.0,STARLINK-5928,PAYLOAD,2024-07-06 12:10:31,14.98328185,0.0003219,70.0003,5.4749,264.4225,95.6567,-2.5462e-05,-3.97e-06,0.0,0 STARLINK-5928,1 55958U 23037AW  24188.50730904 -.00000397  00000-0 -25462-4 0  9992,2 55958  70.0003   5.4749 0003219 264.4225  95.6567 14.98328185 73268,6950.199,96.107,574.301,569.826,0.0
55958.0,STARLINK-5928,PAYLOAD,2024-07-06 13:46:39,14.98288352,0.0003068,70.0,5.3068,267.8862,92.1946,0.00058452,6.881e-05,0.0,0 STARLINK-5928,1 55958U 23037AW  24188.57407298  .00006881  00000-0  58452-3 0  9992,2 55958  70.0000   5.3068 0003068 267.8862  92.1946 14.98288352 72931,6950.322,96.11,574.319,570.054,0.0
55958.0,STARLINK-5928,PAYLOAD,2024-07-06 21:47:20,14.98327342,0.0003228,70.0007,4.4673,265.9975,94.0815,-4.4136e-05,-6.2e-06,0.0,0 STARLINK-5928,1 55958U 23037AW  24188.90787069 -.00000620  00000-0 -44136-4 0  9998,2 55958  70.0007   4.4673 0003228 265.9975  94.0815 14.98327342 72986,6950.201,96.107,574.31,569.823,0.0
55958.0,STARLINK-5928,PAYLOAD,2024-07-07 12:12:32,14.98329458,0.0003272,70.0003,2.9512,269.278,90.8004,7.1004e-07,-8.5e-07,0.0,0 STARLINK-5928,1 55958U 23037AW  24189.50870814 -.00000085  00000-0  71004-6 0  9996,2 55958  70.0003   2.9512 0003272 269.2780  90.8004 14.98329458 73410,6950.195,96.107,574.334,569.785,0.0
55958.0,STARLINK-5928,PAYLOAD,2024-07-08 12:14:33,14.98325668,0.0003221,70.0006,0.4259,271.5151,88.5639,1.1981e-05,5e-07,0.0,0 STARLINK-5928,1 55958U 23037AW  24190.51010976  .00000050  00000-0  11981-4 0  9991,2 55958  70.0006   0.4259 0003221 271.5151  88.5639 14.98325668 73569,6950.206,96.107,574.31,569.833,0.0
55958.0,STARLINK-5928,PAYLOAD,2024-07-08 13:50:41,14.98325803,0.0003221,70.0006,0.2576,271.5045,88.5745,1.27e-05,5.9e-07,0.0,0 STARLINK-5928,1 55958U 23037AW  24190.57686979  .00000059  00000-0  12700-4 0  9998,2 55958  70.0006   0.2576 0003221 271.5045  88.5745 14.98325803 73234,6950.206,96.107,574.31,569.832,0.0
55958.0,STARLINK-5928,PAYLOAD,2024-07-08 21:51:21,14.98329488,0.0003147,70.0008,359.4167,269.6882,90.3916,5.5821e-05,5.73e-06,0.0,0 STARLINK-5928,1 55958U 23037AW  24190.91066661  .00000573  00000-0  55821-4 0  9998,2 55958  70.0008 359.4167 0003147 269.6882  90.3916 14.98329488 73284,6950.194,96.107,574.247,569.872,0.0
55958.0,STARLINK-5928,PAYLOAD,2024-07-09 12:16:34,14.98331908,0.0003079,70.0009,357.9018,266.7265,93.3542,9.5162e-06,2.1e-07,0.0,0 STARLINK-5928,1 55958U 23037AW  24191.51150609  .00000021  00000-0  95162-5 0  9992,2 55958  70.0009 357.9018 0003079 266.7265  93.3542 14.98331908 73716,6950.187,96.107,574.192,569.912,0.0
55958.0,STARLINK-5928,PAYLOAD,2024-07-09 13:52:42,14.98331384,0.0003095,70.0009,357.7335,266.4971,93.5834,3.0205e-06,-5.7e-07,0.0,0 STARLINK-5928,1 55958U 23037AW  24191.57826646 -.00000057  00000-0  30205-5 0  9996,2 55958  70.0009 357.7335 0003095 266.4971  93.5834 14.98331384 73382,6950.189,96.107,574.205,569.903,0.0
55958.0,STARLINK-5928,PAYLOAD,2024-07-09 20:17:14,14.98331206,0.0003103,70.0009,357.0602,266.2743,93.8062,1.2984e-06,-7.8e-07,0.0,0 STARLINK-5928,1 55958U 23037AW  24191.84530636 -.00000078  00000-0  12984-5 0  9994,2 55958  70.0009 357.0602 0003103 266.2743  93.8062 14.98331206 73421,6950.189,96.107,574.211,569.898,0.0
55958.0,STARLINK-5928,PAYLOAD,2024-07-10 10:42:27,14.98326944,0.0002994,70.0011,355.5438,272.4793,87.6023,-2.2269e-05,-3.59e-06,0.0,0 STARLINK-5928,1 55958U 23037AW  24192.44615043 -.00000359  00000-0 -22269-4 0  9996,2 55958  70.0011 355.5438 0002994 272.4793  87.6023 14.98326944 73516,6950.202,96.107,574.148,569.986,0.0
55958.0,STARLINK-5928,PAYLOAD,2024-07-10 20:19:15,14.98326613,0.0003163,70.0007,354.5348,270.3671,89.7126,-4.0692e-05,-5.78e-06,0.0,0 STARLINK-5928,1 55958U 23037AW  24192.84671134 -.00000578  00000-0 -40692-4 0  9996,2 55958  70.0007 354.5348 0003163 270.3671  89.7126 14.98326613 73915,6950.203,96.107,574.267,569.87,0.0
55958.0,STARLINK-5928,PAYLOAD,2024-07-11 13:56:44,14.98330569,0.0003191,70.0008,352.6837,270.4067,89.6726,1.3641e-05,7e-07,0.0,0 STARLINK-5928,1 55958U 23037AW  24193.58106772  .00000070  00000-0  13641-4 0  9998,2 55958  70.0008 352.6837 0003191 270.4067  89.6726 14.98330569 73683,6950.191,96.107,574.274,569.838,0.0
55958.0,STARLINK-5928,PAYLOAD,2024-07-12 04:21:56,14.98330695,0.000322,70.0004,351.1684,271.1504,88.9286,1.3413e-05,6.7e-07,0.0,0 STARLINK-5928,1 55958U 23037AW  24194.18190734  .00000067  00000-0  13413-4 0  9999,2 55958  70.0004 351.1684 0003220 271.1504  88.9286 14.98330695 74112,6950.191,96.107,574.294,569.818,0.0
55958.0,STARLINK-5928,PAYLOAD,2024-07-12 13:58:45,14.98327251,0.0003245,70.0007,350.158,270.0074,90.0713,5.8644e-05,6.07e-06,0.0,0 STARLINK-5928,1 55958U 23037AW  24194.58246830  .00000607  00000-0  58644-4 0  9997,2 55958  70.0007 350.1580 0003245 270.0074  90.0713 14.98327251 73837,6950.201,96.107,574.322,569.811,0.0
